ONEWEB-0102             
1 47258U 20100A   24229.23879459  .00000521  00000+0  14116-2 0  9997
2 47258  87.8934 124.1158 0001837  81.4652 278.6685 13.12444556176858
ONEWEB-0109             
1 47259U 20100B   24229.24690420  .00000403  00000+0  10851-2 0  9999
2 47259  87.8934 124.0794 0001848  81.4705 278.6633 13.12443482176686
ONEWEB-0110             
1 47260U 20100C   24229.27285099 -.00000492  00000+0 -14026-2 0  9994
2 47260  87.8928 124.0763 0001717  77.7667 282.3654 13.12441713176856
ONEWEB-0111             
1 47261U 20100D   24229.22743142  .00000200  00000+0  52178-3 0  9994
2 47261  87.8934 124.0843 0001771  77.6128 282.5199 13.12447260176684
ONEWEB-0114             
1 47262U 20100E   24229.25826661  .00000075  00000+0  17428-3 0  9995
2 47262  87.8928 124.0913 0001922  89.0602 271.0747 13.12439405176648
ONEWEB-0117             
1 47263U 20100F   24229.25014609  .00000313  00000+0  83376-3 0  9997
2 47263  87.8933 124.0709 0001846  75.6118 284.5215 13.12444254176654
ONEWEB-0118             
1 47264U 20100G   24229.20634747 -.00000332  00000+0 -95910-3 0  9994
2 47264  87.8934 124.0828 0002259  82.4843 277.6542 13.12443847176842
ONEWEB-0119             
1 47265U 20100H   24229.23393008  .00000459  00000+0  12410-2 0  9991
2 47265  87.8932 124.1162 0001810  77.7074 282.4257 13.12443554176828
